name,phone_number,email,address,city,state,country
Daniel Harrison,2977840082,qwilson@hotmail.com,33828 Rhonda Hill Apt. 539,New Troyhaven,Texas,USA
Nathaniel Gomez,001-637-516-0728,jamesbenjamin@perkins.net,2858 Johnson Station,South Susan,Texas,USA
Joseph Bell,119-251-6204x898,johnstonshane@hotmail.com,9142 Denise Hollow Apt. 419,Matthewport,Texas,USA
Sean Brown,236.836.7783,ggardner@may.com,0079 Horton Glens Apt. 730,Lake Krista,Texas,USA
Kim Rhodes,815-683-8026x948,scott29@davis.com,5754 Jones Plaza,Lopezmouth,Texas,USA
Nicole Yates,001-037-406-2557x160,katherine96@payne.com,642 Martinez Plains,South William,Texas,USA
Terri Owens,001-125-004-4717x14691,pturner@hotmail.com,1570 John Mountain Suite 256,Byrdhaven,Texas,USA
Stephen Brown,(022)764-9178x803,zblack@yahoo.com,75622 Hunter Isle,Port Randy,Texas,USA
Mr. Kenneth Fox MD,001-892-445-7445x36903,stephaniereyes@yahoo.com,9016 Briggs Port Suite 652,Crawfordmouth,Texas,USA
Warren Schmidt,(665)825-5537x081,rachel85@peterson-baker.info,609 Kim Neck,Garnerbury,Texas,USA
Lauren Shaw,(495)604-1063x06346,leelloyd@garcia-wright.info,869 Bianca Springs Suite 779,North Lauraton,Texas,USA
Selena Jordan,001-975-545-0063,brettmendoza@lopez.biz,12414 Anthony Roads Suite 314,Martinshire,Texas,USA
James Sanchez PhD,6747100600,echase@williams.info,0585 Mann Rue,South Kaylaport,Texas,USA
Maria Peters,904-064-4790,colejuan@lopez-zamora.net,602 Turner River,Rodriguezburgh,Texas,USA
Michelle Turner,(271)936-7604,lopezbrett@miller.org,505 Angela Pine Suite 537,Lake Douglas,Texas,USA
Taylor Young,001-416-470-6514x4618,erikaoliver@hotmail.com,00501 Brooke Stream Suite 541,Nicholastown,Texas,USA
Marissa Chen,+1-197-134-8149x3795,ucalderon@hall-lee.biz,67253 Erik Skyway Suite 107,East Paul,Texas,USA
Richard Garcia,001-044-666-4071x373,lauren59@leblanc.com,06624 Martinez Mount Suite 458,Port Mariaton,Texas,USA
Valerie Palmer,(087)002-8298x502,baldwinandrea@hill.biz,689 Miller Path,Staceymouth,Texas,USA
James Sutton,+1-667-927-3140,durhambeth@obrien.com,375 Taylor Union Suite 778,Hughesburgh,Texas,USA
